STARLINK-3200           
1 49753U 21115AF  26068.52424699 -.00000301  00000+0 -79507-6 0  9990
2 49753  53.2163 149.8673 0001754  69.5833 290.5348 15.08835813235518
DISKSAT C               
1 67219U 25305A   26068.80315184  .00011541  00000+0  75564-3 0  9993
2 67219  45.0017 250.1278 0004534 310.7706  49.2776 15.07852977 12312
